[Satellite]
VERSION=1.1
NAME=CZ-6A DEB
NICKNAME=CZ-6A DEB
TLE1=1 54590U 22151MQ  22341.66393794  .00002960  00000+0  12827-2 0  9991
TLE2=2 54590  98.5918 345.3214 0082578 255.0521 104.1504 14.23184831  3066
STATUS=0
